GLOBALSTAR M001 [-]     
1 25162U 98008A   24074.17159564 -.00000061  00000+0  27303-3 0  9991
2 25162  52.0010 232.1003 0001759  37.5353 133.5081 12.38179111186724
GLOBALSTAR M004 [-]     
1 25163U 98008B   24074.28367139 -.00000046  00000+0  31711-3 0  9994
2 25163  52.0022  17.1620 0003135 358.0724 166.6570 12.63352519203551
GLOBALSTAR M002 [-]     
1 25164U 98008C   24074.01469112 -.00000053  00000+0  46617-3 0  9999
2 25164  52.0030 314.0041 0001908  40.3684 319.7278 11.61498946130590
GLOBALSTAR M003 [-]     
1 25165U 98008D   24074.21915972  .00000046  00000+0  14485-2 0  9990
2 25165  51.9862   2.4826 0008410  87.3322  60.9809 12.11985141177440
GLOBALSTAR M014 [-]     
1 25306U 98023A   24074.19519376 -.00000072  00000+0  10867-3 0  9990
2 25306  51.9812 246.4424 0000695 160.6291  11.0101 11.65465745137532
GLOBALSTAR M006 [-]     
1 25307U 98023B   24074.05874656 -.00000053  00000+0  45468-3 0  9995
2 25307  51.9923 282.0668 0004007  14.4008 154.7335 11.58157581163514
GLOBALSTAR M015 [-]     
1 25308U 98023C   24073.96731561 -.00000127  00000+0 -12223-2 0  9997
2 25308  51.9860 359.6702 0012598 339.2795 100.7807 11.48852592141187
GLOBALSTAR M008 [-]     
1 25309U 98023D   24074.54546177 -.00000073  00000+0  18350-3 0  9997
2 25309  51.9958  90.6360 0002276 285.8209 248.4869 12.36038124181318
